#cP2019  6 11  0  0  0.00000000      96 ORBIT IGS14 HLM  IGS
## 2057 172800.00000000   900.00000000 58645 0.0000000000000
+   32   G01G02G03G04G05G06G07G08G09G10G11G12G13G14G15G16G17
+        G18G19G20G21G22G23G24G25G26G27G28G29G30G31G32  0  0
+          0  0  0  0  0  0  0  0  0  0  0  0  0  0  0  0  0
+          0  0  0  0  0  0  0  0  0  0  0  0  0  0  0  0  0
+          0  0  0  0  0  0  0  0  0  0  0  0  0  0  0  0  0
++         2  2  2  0  2  2  2  2  2  2  2  2  2  2  2  2  2
++         2  2  2  2  2  2  2  2  2  2  2  2  2  2  2  0  0
++         0  0  0  0  0  0  0  0  0  0  0  0  0  0  0  0  0
++         0  0  0  0  0  0  0  0  0  0  0  0  0  0  0  0  0
++         0  0  0  0  0  0  0  0  0  0  0  0  0  0  0  0  0
%c G  cc GPS ccc cccc cccc cccc cccc ccccc ccccc ccccc ccccc
%c cc cc ccc ccc cccc cccc cccc cccc ccccc ccccc ccccc ccccc
%f  1.2500000  1.025000000  0.00000000000  0.000000000000000
%f  0.0000000  0.000000000  0.00000000000  0.000000000000000
%i    0    0    0    0      0      0      0      0         0
%i    0    0    0    0      0      0      0      0         0
/* RAPID ORBIT COMBINATION FROM WEIGHTED AVERAGE OF:        
/* cod emr esa gfz jpl ngs sio usn whu                      
/* REFERENCED TO IGS TIME (IGST) AND TO WEIGHTED MEAN POLE: 
/* PCV:IGS14_2056 OL/AL:FES2004  NONE     Y  ORB:CMB CLK:CMB
*  2019  6 11  2 15  0.00000000
PG01 -10811.380914  20635.278853 -12633.675805    -38.062574  8  7  6 127       
PG02  21178.312255 -13858.708990  -7187.004187   -234.472336  7  6  4  93       
PG03  -2453.885311  15141.200346 -21730.801496    185.943471  7  6  4 101       
PG04  11297.685933  21422.050521  10923.776796 999999.999999
PG05  21564.534440  -4431.547640  14884.455707      0.593019  9  6  5 103       
PG06  19540.063068  -1010.608519 -17934.213892    181.312615  4  6  9  95       
PG07   3110.481089  16543.743781  20696.971739    -42.037966  5  6  4  94       
PG08  -6930.496054  19999.939793  15945.920735   -146.972171  8  6  6 122       
PG09   8377.390242  24827.154929   4273.854202    394.055136  4  4  7 104       
PG10 -23651.266038 -11426.710528   4668.912297     19.867997  7  7  6  93       
PG11  -7985.773045  25310.244421  -3437.768236   -587.258729  8  5  5 113       
PG12   5143.666343 -13927.716476 -22241.171052    234.283900  8  8  4 108       
PG13  12923.131181 -11673.051715  19931.076970    -59.628752  7  6  3  99       
PG14 -15269.934363  -5123.429036 -20828.739320    -76.617743  7  6  6  68       
PG15   5126.363299 -21194.534854  14630.113109   -307.786849  8  5  6  87       
PG16 -21491.359489   1885.107677  15586.998417    -47.105848  7  9  6 119       
PG17  13705.199708  14206.771993 -17409.006639     69.680078  9  9  8  85       
PG18 -16545.114762  20313.962318  -4401.369427     60.911988  8 11  7 146       
PG19  14916.798471   6307.333935 -21341.293572   -308.092930  9  9  6 114       
PG20 -18244.420380 -13980.707628  13337.464848    525.308514  8  8  6  85       
PG21  -8640.589199 -13566.799846  21950.426610   -175.529642  5  6  2  99       
PG22 -10570.961190  13011.560440 -20354.745685   -715.139952  6  6  4 102       
PG23   -114.824419  25151.404246  -7526.261395   -182.318860  7  6  5  99       
PG24  12401.049621 -21457.339388  -9240.211787    -67.287069  9  7  6  97       
PG25  -9214.862127 -16759.021770 -18749.712608   -764.623962  8  4  9  95       
PG26 -25677.606851  -3297.943114   6317.333195    223.917748  7  6  2 105       
PG27 -13011.386950   8421.468164  21413.677216   -154.691883  8  9  4 122       
PG28  22017.948776  13890.326961   5590.592316    767.540376  5  6  7  48       
PG29  -3769.158006 -26281.849420    508.332282    179.498200  8     5  80       
PG30  12993.691794   9395.429234  21219.548760   -121.556965  3  4  6  90       
PG31 -20791.221979   2049.278392 -16655.390613     31.948726  7  2  4 109       
PG32 -15401.081264 -12072.441329 -17950.172929    -48.813217  5  7  5  88       
*  2019  6 11  2 30  0.00000000
PG01 -11890.796200  21362.112510 -10149.565911    -38.071275  8  8  7 132       
PG02  20653.977249 -12905.825862  -9807.219592   -234.480434  7  6  4 109       
PG03  -4828.605545  14420.069646 -21815.507209    185.942375  7  6  3  93       
PG04  11285.902613  22548.104979   8367.591770 999999.999999
PG05  23043.770033  -3804.580607  12718.782635      0.592852  9  7  6 106       
PG06  18053.962820    535.867654 -19442.047621    181.303146  3  6  8 108       
PG07   1351.475872  17979.807702  19605.064897    -42.044873  6  6  5  66       
PG08  -7543.234366  18163.415662  17782.366277   -146.973807  8  6  6 108       
PG09   8186.584148  25216.973228   1459.759449    394.048301  4  4  6  92       
PG10 -22935.936576 -11444.935531   7405.863217     19.857423  6  7  7 111       
PG11  -8400.510188  25343.446038   -714.791575   -587.251236  8  6  6 112       
PG12   7461.653270 -13031.546762 -22111.258121    234.280632  8  7  4  94       
PG13  13253.687073  -9336.021712  20920.214495    -59.626943  6  5  4 108       
PG14 -15545.627064  -7502.409155 -19913.934700    -76.616123  8  5  6 104       
PG15   5962.201473 -19524.636147  16519.380296   -307.784567  8  5  6 110       
PG16 -22995.253395   1147.224367  13424.561186    -47.108534  7  9  6 113       
PG17  13912.789872  16145.104761 -15501.571922     69.685762  8  9  8  93       
PG18 -16946.102961  20328.824996  -1577.180807     60.914994  9 11  7 150       
PG19  15146.567429   8615.020855 -20328.280264   -308.088856  9  9  6 111       
PG20 -16565.870584 -13933.109910  15389.025541    525.309204  7  8  6 104       
PG21  -7014.049752 -15219.115957  21435.446670   -175.523204  5  6    113       
PG22 -12822.782058  12376.310212 -19439.422498   -715.145138  6  6  4 102       
PG23   -680.456109  24195.208421 -10114.081646   -182.317489  7  7  5 109       
PG24  13253.536670 -21884.653245  -6611.722218    -67.289406  9  7  6 107       
PG25  -7112.561803 -16207.291635 -20094.526020   -764.626915  8  3  8 103       
PG26 -26153.094612  -3701.152888   3565.679049    223.926204  6  6  1 109       
PG27 -13624.138799   5998.643611  21867.917798   -154.700732  8  9  4 112       
PG28  21276.608774  13786.733249   8346.656920    767.540246  5  5  7  93       
PG29  -3570.038767 -26209.405019  -2393.886545    179.489425  8  1  6  91       
PG30  11153.016402  11002.235635  21475.897588   -121.563486  4  4  6  72       
PG31 -19386.977015    637.577679 -18336.958870     31.946357  7  1  4 120       
PG32 -15702.812081 -14017.824477 -16206.397962    -48.798632  5  7  5 110       
*  2019  6 11  2 45  0.00000000
PG01 -12728.955836  21935.072700  -7489.042834    -38.079940  7  8  7 131       
PG02  19991.916565 -11700.316499 -12252.663050   -234.488243  7  6  5 112       
PG03  -7227.569310  13827.206695 -21526.212992    185.941296  7  6  4  87       
PG04  11257.390771  23385.560253   5667.502951 999999.999999
PG05  24300.416439  -3308.473706  10335.041807      0.592581  9  7  6 100       
PG06  16549.425092   2271.944686 -20614.462677    181.293617  4  6  8 109       
PG07   -236.642595  19406.040346  18178.671407    -42.051553  7  7  6  66       
PG08  -8308.787845  16181.051571  19311.238465   -146.975880  7  7  6 112       
PG09   7921.552690  25310.313104  -1379.485252    394.041446  4  5  6  70       
PG10 -21929.666673 -11430.995088  10017.074313     19.846808  6  7  6 106       
PG11  -8722.500564  25104.612056   2020.237734   -587.243460  7  7  6 112       
PG12   9794.091582 -12276.790692 -21608.007445    234.277258  8  7  4  86       
PG13  13722.286877  -6929.128956  21545.554231    -59.625483  5  5  4 110       
PG14 -15917.380452  -9738.833920 -18648.359384    -76.614499  7  5  6  61       
PG15   6946.416770 -17710.351957  18114.578892   -307.782705  8  5  5  98       
PG16 -24291.783207    578.739850  11033.430359    -47.111471  7  9  6 102       
PG17  14173.463467  17837.402313 -13321.049163     69.691658  8  8  8  78       
PG18 -17139.240263  20118.003363   1274.251486 999999.999999
PG19  15480.570169  10777.806410 -18973.790262   -308.084576  8  8  6 101       
PG20 -14670.471586 -13940.240610  17175.708348    525.309456  7  8  5 106       
PG21  -5524.195975 -16897.787403  20577.299894   -175.516985  5  6    108       
PG22 -14979.377374  11866.229044 -18182.404372   -715.150282  6  6  4  99       
PG23  -1378.658477  22993.485329 -12521.238057   -182.316124  8  7  6  96       
PG24  13887.520234 -22120.910863  -3867.713444    -67.290474  9  7  7 107       
PG25  -4854.273987 -15739.396732 -21101.903969   -764.629836  8  2  7  93       
PG26 -26342.129731  -4013.498470    753.289362    223.934630  5  6     98       
PG27 -14375.724841   3586.682988  21941.349318   -154.709624  8  9  4 112       
PG28  20248.038522  13624.708624  10961.223207    767.539990  5  5  7  81       
PG29  -3295.000665 -25829.187095  -5254.903198    179.480986  8  2  6  98       
PG30   9386.162092  12704.407309  21363.662677   -121.570009  3  3  7  75       
PG31 -17935.497787   -969.867948 -19707.634621     31.944062  7     4 104       
PG32 -16042.740722 -15739.971742 -14183.887118    -48.784052  5  7  5 106       
EOF
